{"spkid": "20153814", "covariance": {"epoch": "2458083.5", "elements": [{"units": null, "title": "eccentricity", "value": ".4669729312323679", "sigma": 6.82812802118277e-09, "name": "e", "label": "e"}, {"sigma": 1.18894817654059e-08, "name": "q", "units": "au", "title": "perihelion distance", "value": ".9124751621924233", "label": "q"}, {"name": "tp", "sigma": 2.83957694549762e-06, "units": "TDB", "value": "2457895.442808271923", "title": "time of perihelion passage", "label": "tp"}, {"sigma": 7.97397658706243e-05, "name": "om", "units": "deg", "value": "277.5057205071764", "title": "longitude of the ascending node", "label": "node"}, {"sigma": 8.04354624807878e-05, "name": "w", "units": "deg", "title": "argument of perihelion", "value": "44.56461706945646", "label": "peri"}, {"units": "deg", "title": "inclination", "value": "1.919764913833357", "sigma": 1.69929075330479e-06, "name": "i", "label": "i"}], "data": [["4.662333227366128E-17", "-8.105835454536295E-17", "-8.028540421454168E-15", "4.307389005839254E-13", "-4.416453893598672E-13", "-8.760361479550524E-15"], ["-8.105835454536295E-17", "1.413597766499204E-16", "1.262279347754961E-14", "-7.52355457987897E-13", "7.702209963887161E-13", "1.54581032062636E-14"], ["-8.028540421454168E-15", "1.262279347754961E-14", "8.063197229401582E-12", "-1.971990376702508E-11", "2.63583503809603E-11", "1.258568763496426E-12"], ["4.307389005839254E-13", "-7.52355457987897E-13", "-1.971990376702508E-11", "6.358430261101982E-9", "-6.410997501217422E-9", "-3.746075445952255E-11"], ["-4.416453893598672E-13", "7.702209963887161E-13", "2.63583503809603E-11", "-6.410997501217422E-9", "6.469863624498229E-9", "3.958915288290156E-11"], ["-8.760361479550524E-15", "1.54581032062636E-14", "1.258568763496426E-12", "-3.746075445952255E-11", "3.958915288290156E-11", "2.887589064267165E-12"]], "labels": ["e", "q", "tp", "node", "peri", "i"]}, "elements": [{"label": "e", "name": "e", "sigma": "6.8498E-9", "units": null, "value": ".4673010002422763", "title": "eccentricity"}, {"label": "a", "name": "a", "sigma": "1.2564E-9", "units": "au", "value": "1.711561211577039", "title": "semi-major axis"}, {"label": "q", "sigma": "1.1951E-8", "name": "q", "title": "perihelion distance", "value": ".911746945431206", "units": "au"}, {"label": "i", "sigma": "1.6995E-6", "name": "i", "value": "1.91953316452203", "title": "inclination; angle with respect to x-y ecliptic plane", "units": "deg"}, {"label": "node", "title": "longitude of the ascending node", "value": "277.3508336340066", "units": "deg", "sigma": "7.9812E-5", "name": "om"}, {"label": "peri", "name": "w", "sigma": "8.0505E-5", "units": "deg", "title": "argument of perihelion", "value": "44.64214528637515"}, {"title": "mean anomaly", "value": "14.62048134466213", "units": "deg", "sigma": "1.3657E-6", "name": "ma", "label": "M"}, {"label": "tp", "title": "time of perihelion passage", "value": "2461167.284082695437", "units": "TDB", "name": "tp", "sigma": "3.0785E-6"}, {"label": "period", "sigma": "9.0058E-7", "name": "per", "value": "817.8752770002632", "title": "sidereal orbital period", "units": "d"}, {"label": "n", "title": "mean motion", "value": ".44016491282189", "units": "deg/d", "sigma": "4.8468E-10", "name": "n"}, {"label": "Q", "units": "au", "title": "aphelion distance", "value": "2.511375477722871", "sigma": "1.8436E-9", "name": "ad"}], "epoch": "2461200.5"}